NORAD_CAT_ID,OBJECT_NAME,OBJECT_TYPE,EPOCH,MEAN_MOTION,ECCENTRICITY,INCLINATION,RA_OF_ASC_NODE,ARG_OF_PERICENTER,MEAN_ANOMALY,BSTAR,MEAN_MOTION_DOT,MEAN_MOTION_DDOT,TLE_LINE0,TLE_LINE1,TLE_LINE2,SEMIMAJOR_AXIS,PERIOD,APOGEE,PERIGEE,DECAYED
54759.0,STARLINK-5215,PAYLOAD,2024-02-14 14:20:03,15.08830316,0.000151,53.2166,184.6008,98.0237,262.0927,0.00013051,1.789e-05,0.0,0 STARLINK-5215,1 54759U 22175B   24045.59726176  .00001789  00000-0  13051-3 0  9993,2 54759  53.2166 184.6008 0001510  98.0237 262.0927 15.08830316 66148,6917.91,95.438,540.82,538.73,0.0
54759.0,STARLINK-5215,PAYLOAD,2024-02-14 15:55:26,15.0883723,0.0001466,53.2169,184.3042,86.6417,273.4743,5.5954e-05,6.03e-06,0.0,0 STARLINK-5215,1 54759U 22175B   24045.66350021  .00000603  00000-0  55954-4 0  9996,2 54759  53.2169 184.3042 0001466  86.6417 273.4743 15.08837230 66154,6917.889,95.438,540.768,538.74,0.0
54759.0,STARLINK-5215,PAYLOAD,2024-02-15 14:10:50,15.08835928,0.0001406,53.2164,180.1425,78.8018,281.3132,0.00014226,1.977e-05,0.0,0 STARLINK-5215,1 54759U 22175B   24046.59086274  .00001977  00000-0  14226-3 0  9996,2 54759  53.2164 180.1425 0001406  78.8018 281.3132 15.08835928 66299,6917.893,95.438,540.73,538.785,0.0
54759.0,STARLINK-5215,PAYLOAD,2024-02-15 15:46:13,15.08844321,0.0001423,53.2169,179.8451,83.0389,277.0765,9.3597e-05,1.202e-05,0.0,0 STARLINK-5215,1 54759U 22175B   24046.65709909  .00001202  00000-0  93597-4 0  9990,2 54759  53.2169 179.8451 0001423  83.0389 277.0765 15.08844321 64149,6917.867,95.437,540.717,538.748,0.0
54759.0,STARLINK-5215,PAYLOAD,2024-02-16 14:01:37,15.08843994,0.0001484,53.2183,175.6839,86.7146,273.4016,0.00014864,2.079e-05,0.0,0 STARLINK-5215,1 54759U 22175B   24047.58445856  .00002079  00000-0  14864-3 0  9993,2 54759  53.2183 175.6839 0001484  86.7146 273.4016 15.08843994 66446,6917.868,95.437,540.76,538.707,0.0
54759.0,STARLINK-5215,PAYLOAD,2024-02-16 18:47:45,15.08853033,0.0001366,53.2155,174.7879,74.1286,285.9856,0.00019526,2.822e-05,0.0,0 STARLINK-5215,1 54759U 22175B   24047.78317073  .00002822  00000-0  19526-3 0  9990,2 54759  53.2155 174.7879 0001366  74.1286 285.9856 15.08853033 64313,6917.841,95.437,540.651,538.761,0.0
54759.0,STARLINK-5215,PAYLOAD,2024-02-17 12:17:02,15.08834883,0.0002092,53.2168,171.5189,108.0514,252.0706,-4.2487e-05,-9.64e-06,0.0,0 STARLINK-5215,1 54759U 22175B   24048.51183139 -.00000964  00000-0 -42487-4 0  9996,2 54759  53.2168 171.5189 0002092 108.0514 252.0706 15.08834883 64427,6917.896,95.438,541.208,538.314,0.0
54759.0,STARLINK-5215,PAYLOAD,2024-02-17 13:52:25,15.08834535,0.000153,53.2173,171.2183,102.2572,257.8592,-6.1596e-05,-1.268e-05,0.0,0 STARLINK-5215,1 54759U 22175B   24048.57807139 -.00001268  00000-0 -61596-4 0  9995,2 54759  53.2173 171.2183 0001530 102.2572 257.8592 15.08834535 66590,6917.897,95.438,540.821,538.704,0.0
54759.0,STARLINK-5215,PAYLOAD,2024-02-17 17:03:11,15.08837599,0.0001685,53.2178,170.6258,69.0667,291.0505,-1.6628e-05,-5.53e-06,0.0,0 STARLINK-5215,1 54759U 22175B   24048.71055100 -.00000553  00000-0 -16628-4 0  9996,2 54759  53.2178 170.6258 0001685  69.0667 291.0505 15.08837599 66617,6917.888,95.438,540.918,538.587,0.0
54759.0,STARLINK-5215,PAYLOAD,2024-02-18 01:00:06,15.08841325,0.0001586,53.218,169.1373,80.7344,279.3827,-2.1091e-05,-6.24e-06,0.0,0 STARLINK-5215,1 54759U 22175B   24049.04174757 -.00000624  00000-0 -21091-4 0  9992,2 54759  53.2180 169.1373 0001586  80.7344 279.3827 15.08841325 64507,6917.876,95.437,540.839,538.644,0.0
54759.0,STARLINK-5215,PAYLOAD,2024-02-18 12:07:48,15.08850752,0.0001446,53.2177,167.055,89.5895,270.5263,7.5397e-05,9.13e-06,0.0,0 STARLINK-5215,1 54759U 22175B   24049.50542007  .00000913  00000-0  75397-4 0  9997,2 54759  53.2177 167.0550 0001446  89.5895 270.5263 15.08850752 64578,6917.848,95.437,540.713,538.712,0.0
54759.0,STARLINK-5215,PAYLOAD,2024-02-18 13:43:11,15.08853074,0.0001509,53.2173,166.7578,91.5184,268.5981,0.00010015,1.307e-05,0.0,0 STARLINK-5215,1 54759U 22175B   24049.57165778  .00001307  00000-0  10015-3 0  9993,2 54759  53.2173 166.7578 0001509  91.5184 268.5981 15.08853074 66749,6917.84,95.437,540.749,538.662,0.0
54759.0,STARLINK-5215,PAYLOAD,2024-02-18 16:53:57,15.08854891,0.0001385,53.215,166.1651,85.2537,274.8613,0.00019946,2.889e-05,0.0,0 STARLINK-5215,1 54759U 22175B   24049.70413610  .00002889  00000-0  19946-3 0  9997,2 54759  53.2150 166.1651 0001385  85.2537 274.8613 15.08854891 66766,6917.835,95.437,540.658,538.742,0.0
54759.0,STARLINK-5215,PAYLOAD,2024-02-19 11:58:36,15.08837976,0.0001475,53.2161,162.5975,86.4068,273.7093,7.2412e-05,8.65e-06,0.0,0 STARLINK-5215,1 54759U 22175B   24050.49902813  .00000865  00000-0  72412-4 0  9993,2 54759  53.2161 162.5975 0001475  86.4068 273.7093 15.08837976 64728,6917.887,95.438,540.772,538.731,0.0
54759.0,STARLINK-5215,PAYLOAD,2024-02-19 13:33:59,15.08840042,0.0001374,53.2156,162.2993,101.7513,258.3633,7.1507e-05,8.5e-06,0.0,0 STARLINK-5215,1 54759U 22175B   24050.56526641  .00000850  00000-0  71507-4 0  9990,2 54759  53.2156 162.2993 0001374 101.7513 258.3633 15.08840042 66890,6917.88,95.438,540.696,538.795,0.0
54759.0,STARLINK-5215,PAYLOAD,2024-02-19 15:09:22,15.08842092,0.000137,53.2158,162.0022,98.902,261.2127,0.00010609,1.401e-05,0.0,0 STARLINK-5215,1 54759U 22175B   24050.63150573  .00001401  00000-0  10609-3 0  9993,2 54759  53.2158 162.0022 0001370  98.9020 261.2127 15.08842092 66909,6917.874,95.437,540.687,538.791,0.0
54759.0,STARLINK-5215,PAYLOAD,2024-02-20 13:24:45,15.08846832,0.0001503,53.2165,157.841,85.0105,275.1058,1.1903e-05,-9.9e-07,0.0,0 STARLINK-5215,1 54759U 22175B   24051.55886491 -.00000099  00000-0  11903-4 0  9992,2 54759  53.2165 157.8410 0001503  85.0105 275.1058 15.08846832 67048,6917.86,95.437,540.764,538.685,0.0
54759.0,STARLINK-5215,PAYLOAD,2024-02-21 11:40:10,15.08844396,0.0001455,53.2166,153.6787,89.5489,270.567,0.00023389,3.437e-05,0.0,0 STARLINK-5215,1 54759U 22175B   24052.48622749  .00003437  00000-0  23389-3 0  9997,2 54759  53.2166 153.6787 0001455  89.5489 270.5670 15.08844396 65028,6917.867,95.437,540.739,538.725,0.0
54759.0,STARLINK-5215,PAYLOAD,2024-02-21 13:15:33,15.08847377,0.0001478,53.2171,153.3806,94.8505,265.2656,0.00025374,3.753e-05,0.0,0 STARLINK-5215,1 54759U 22175B   24052.55246542  .00003753  00000-0  25374-3 0  9995,2 54759  53.2171 153.3806 0001478  94.8505 265.2656 15.08847377 67193,6917.858,95.437,540.745,538.7,0.0
54759.0,STARLINK-5215,PAYLOAD,2024-02-22 11:30:57,15.08838916,0.0001498,53.2171,149.2151,102.0975,258.0185,2.0761e-05,4.2e-07,0.0,0 STARLINK-5215,1 54759U 22175B   24053.47983087  .00000042  00000-0  20761-4 0  9993,2 54759  53.2171 149.2151 0001498 102.0975 258.0185 15.08838916 65177,6917.884,95.438,540.785,538.712,0.0
54759.0,STARLINK-5215,PAYLOAD,2024-02-22 13:06:20,15.088415,0.0001448,53.217,148.9174,97.7894,262.3263,2.1063e-05,4.7e-07,0.0,0 STARLINK-5215,1 54759U 22175B   24053.54606904  .00000047  00000-0  21063-4 0  9992,2 54759  53.2170 148.9174 0001448  97.7894 262.3263 15.08841500 67341,6917.876,95.437,540.743,538.739,0.0
54759.0,STARLINK-5215,PAYLOAD,2024-02-23 12:57:06,15.08848786,0.0001402,53.217,144.4616,99.4652,260.6498,4.7106e-05,4.62e-06,0.0,0 STARLINK-5215,1 54759U 22175B   24054.53966341  .00000462  00000-0  47106-4 0  9993,2 54759  53.2170 144.4616 0001402  99.4652 260.6498 15.08848786 65335,6917.854,95.437,540.688,538.749,0.0
54759.0,STARLINK-5215,PAYLOAD,2024-02-24 04:50:58,15.08840073,0.0001526,53.2171,141.4903,106.9295,253.1864,4.6817e-05,4.57e-06,0.0,0 STARLINK-5215,1 54759U 22175B   24055.20206996  .00000457  00000-0  46817-4 0  9993,2 54759  53.2171 141.4903 0001526 106.9295 253.1864 15.08840073 65432,6917.88,95.438,540.801,538.689,0.0
54759.0,STARLINK-5215,PAYLOAD,2024-02-24 12:47:54,15.08834978,0.0001272,53.2159,139.9988,100.4797,259.6338,6.756e-05,7.87e-06,0.0,0 STARLINK-5215,1 54759U 22175B   24055.53327380  .00000787  00000-0  67560-4 0  9994,2 54759  53.2159 139.9988 0001272 100.4797 259.6338 15.08834978 67646,6917.896,95.438,540.641,538.881,0.0
54759.0,STARLINK-5215,PAYLOAD,2024-02-24 15:58:40,15.08840991,0.000131,53.2164,139.4029,95.2903,264.8238,0.0001069,1.414e-05,0.0,0 STARLINK-5215,1 54759U 22175B   24055.66574993  .00001414  00000-0  10690-3 0  9991,2 54759  53.2164 139.4029 0001310  95.2903 264.8238 15.08840991 67667,6917.877,95.437,540.649,538.836,0.0
54759.0,STARLINK-5215,PAYLOAD,2024-02-25 12:38:41,15.08848467,0.0001425,53.2162,135.5366,108.735,251.3797,9.3101e-05,1.194e-05,0.0,0 STARLINK-5215,1 54759U 22175B   24056.52686580  .00001194  00000-0  93101-4 0  9997,2 54759  53.2162 135.5366 0001425 108.7350 251.3797 15.08848467 65631,6917.855,95.437,540.705,538.734,0.0
54759.0,STARLINK-5215,PAYLOAD,2024-02-25 14:14:04,15.08850774,0.0001551,53.217,135.2396,111.8475,248.2683,0.00011116,1.482e-05,0.0,0 STARLINK-5215,1 54759U 22175B   24056.59310292  .00001482  00000-0  11116-3 0  9993,2 54759  53.2170 135.2396 0001551 111.8475 248.2683 15.08850774 67807,6917.847,95.437,540.785,538.639,0.0
54759.0,STARLINK-5215,PAYLOAD,2024-02-26 04:32:33,15.08833564,0.0001775,53.2166,132.5632,97.6425,262.4769,3.4204e-05,2.56e-06,0.0,0 STARLINK-5215,1 54759U 22175B   24057.18928062  .00000256  00000-0  34204-4 0  9991,2 54759  53.2166 132.5632 0001775  97.6425 262.4769 15.08833564 65730,6917.9,95.438,540.993,538.537,0.0
54759.0,STARLINK-5215,PAYLOAD,2024-02-26 12:29:29,15.08833861,0.0001467,53.217,131.077,102.7515,257.3642,3.7144e-05,3.03e-06,0.0,0 STARLINK-5215,1 54759U 22175B   24057.52048086  .00000303  00000-0  37144-4 0  9997,2 54759  53.2170 131.0770 0001467 102.7515 257.3642 15.08833861 67946,6917.899,95.438,540.779,538.749,0.0
54759.0,STARLINK-5215,PAYLOAD,2024-02-27 04:23:20,15.08842042,0.0001379,53.2167,128.1046,100.2263,259.8884,0.00012226,1.658e-05,0.0,0 STARLINK-5215,1 54759U 22175B   24058.18287493  .00001658  00000-0  12226-3 0  9994,2 54759  53.2167 128.1046 0001379 100.2263 259.8884 15.08842042 65887,6917.874,95.437,540.693,538.785,0.0
